{"type":"FeatureCollection","description":"Approximate archival building footprints. Current extensions and visitor entrances unverified.","licence":"OSM-derived alignment: Open Database Licence (ODbL) 1.0","features":[{"type":"Feature","properties":{"id":"tpk-2-2-2","number":2,"street":"Jalan TPK 2/2","precision":"plan-derived-approximate","entranceVerified":false,"source":"Archival architectural site plan; address sequence from annotated DYM TPK2 layout; OSM alignment"},"geometry":{"type":"Polygon","coordinates":[[[101.6361182,3.0484783],[101.6361185,3.048686],[101.6362786,3.0486818],[101.6362783,3.0484741],[101.6361182,3.0484783]]]}},{"type":"Feature","properties":{"id":"tpk-2-2-4","number":4,"street":"Jalan TPK 2/2","precision":"plan-derived-approximate","entranceVerified":false,"source":"Archival architectural site plan; address sequence from annotated DYM TPK2 layout; OSM alignment"},"geometry":{"type":"Polygon","coordinates":[[[101.6364859,3.0484597],[101.6364862,3.0486673],[101.6366505,3.048663],[101.6366502,3.0484554],[101.6364859,3.0484597]]]}},{"type":"Feature","properties":{"id":"tpk-2-2-6","number":6,"street":"Jalan TPK 2/2","precision":"plan-derived-approximate","entranceVerified":false,"source":"Archival architectural site plan; address sequence from annotated DYM TPK2 layout; OSM alignment"},"geometry":{"type":"Polygon","coordinates":[[[101.6367973,3.0484425],[101.6367976,3.0486501],[101.6369576,3.0486459],[101.6369573,3.0484383],[101.6367973,3.0484425]]]}},{"type":"Feature","properties":{"id":"tpk-2-2-8","number":8,"street":"Jalan TPK 2/2","precision":"plan-derived-approximate","entranceVerified":false,"source":"Archival architectural site plan; address sequence from annotated DYM TPK2 layout; OSM alignment"},"geometry":{"type":"Polygon","coordinates":[[[101.6371476,3.0484288],[101.6371479,3.0486364],[101.6373123,3.0486321],[101.637312,3.0484245],[101.6371476,3.0484288]]]}}]}
