{"type":"FeatureCollection","attribution":"\u00a9 OpenStreetMap contributors","licence":"https://opendatacommons.org/licenses/odbl/1-0/","source":"https://overpass-api.de/api/interpreter","retrievedAt":"2026-10-07","features":[{"type":"Feature","properties":{"osmId":61808879,"name":"Persiaran Puchong Jaya Selatan","highway":"secondary"},"geometry":{"type":"LineString","coordinates":[[101.6327093,3.0488878],[101.6327075,3.0485743],[101.6326996,3.0484391],[101.6327019,3.0483309],[101.6327132,3.0482033],[101.6328837,3.047624],[101.6329069,3.0475046],[101.6329376,3.0472022],[101.632941,3.0470154],[101.632941,3.046873],[101.6328158,3.0463969],[101.6327531,3.046267],[101.6326786,3.0461384],[101.6325752,3.0460072],[101.6325119,3.0459323],[101.6323132,3.0457938],[101.6320493,3.0456255],[101.6316824,3.0454573],[101.6310411,3.0451735],[101.6306643,3.0450142]]}},{"type":"Feature","properties":{"osmId":131672347,"name":"Jalan Terkukur 3","highway":"residential"},"geometry":{"type":"LineString","coordinates":[[101.6301808,3.0456024],[101.6302457,3.0456254],[101.6306717,3.0457569],[101.6314224,3.0460842],[101.6316913,3.0462225],[101.6320071,3.0464322],[101.6321118,3.046578],[101.6322788,3.0468623],[101.6324971,3.0470743]]}},{"type":"Feature","properties":{"osmId":131672352,"name":"Jalan BK 3/6","highway":"residential"},"geometry":{"type":"LineString","coordinates":[[101.6377754,3.0501768],[101.6381608,3.0501668],[101.6387479,3.0501514],[101.6388357,3.0501491],[101.6389353,3.0501574],[101.6390356,3.0501765],[101.6391231,3.0502048],[101.6392282,3.0502525],[101.6393068,3.0503189],[101.6393646,3.0503954],[101.6394018,3.0504809],[101.6394225,3.0505766],[101.639433,3.0506754],[101.639468,3.0516159]]}},{"type":"Feature","properties":{"osmId":131672353,"name":"Jalan BK 4/4","highway":"residential"},"geometry":{"type":"LineString","coordinates":[[101.6417309,3.0439804],[101.6416626,3.0439814],[101.6414806,3.043981],[101.6409536,3.0439831],[101.6404545,3.0439833],[101.6400512,3.0439834],[101.6393064,3.0439774],[101.6390761,3.0439756],[101.6385419,3.0439744]]}},{"type":"Feature","properties":{"osmId":131672365,"name":"Jalan BK 3/8","highway":"residential"},"geometry":{"type":"LineString","coordinates":[[101.6365822,3.0496726],[101.6365923,3.0502004],[101.6366006,3.0506299],[101.6366025,3.0507311],[101.6366123,3.0512413],[101.6366212,3.0517067],[101.6366224,3.0517711],[101.6366323,3.0522887],[101.6366366,3.0525102],[101.6366426,3.0528222],[101.6366454,3.0529695]]}},{"type":"Feature","properties":{"osmId":131672375,"name":"Jalan Kawasari 7","highway":"residential"},"geometry":{"type":"LineString","coordinates":[[101.6323185,3.0454508],[101.6324241,3.0452224],[101.6324834,3.0449508],[101.632527,3.0444871],[101.6325637,3.0441934],[101.6324227,3.0436609],[101.6323334,3.0432867],[101.632341,3.0431348],[101.632379,3.0428425],[101.6325421,3.0423559],[101.6326452,3.0420483],[101.6326059,3.0417207],[101.6325868,3.0416683],[101.6325498,3.0416471]]}},{"type":"Feature","properties":{"osmId":131672379,"name":"Jalan Terkukur 2","highway":"residential"},"geometry":{"type":"LineString","coordinates":[[101.6302457,3.0456254],[101.630231,3.0457566],[101.6302009,3.0459449],[101.6302178,3.0460069],[101.6302493,3.0460523],[101.6302895,3.0460755],[101.6308825,3.0462685],[101.6318382,3.0468097],[101.6319194,3.0468365],[101.631974,3.0468229],[101.6320241,3.0466771],[101.6321118,3.046578]]}},{"type":"Feature","properties":{"osmId":131672386,"name":"Jalan TPK 2/7","highway":"unclassified"},"geometry":{"type":"LineString","coordinates":[[101.6377113,3.0446188],[101.6376976,3.0445582],[101.6376634,3.0445178],[101.6376134,3.0444913],[101.6375467,3.0444785],[101.6368769,3.0444942],[101.6360661,3.0445131],[101.6359894,3.044526],[101.635939,3.0445501]]}},{"type":"Feature","properties":{"osmId":131672392,"name":"Jalan BK 4/1","highway":"residential"},"geometry":{"type":"LineString","coordinates":[[101.6416297,3.0480887],[101.6413237,3.048087],[101.640777,3.0480841],[101.6407283,3.0480839],[101.6404643,3.0480825],[101.6401543,3.0480808],[101.6400308,3.0480801],[101.6399854,3.0480799],[101.6395891,3.0480778],[101.6391453,3.0480754],[101.6389836,3.0480746],[101.6387143,3.0480731],[101.6382729,3.0480708],[101.6380182,3.0480694],[101.6379502,3.0480691],[101.6375599,3.048067]]}},{"type":"Feature","properties":{"osmId":131672394,"name":"Jalan TPK 2/8","highway":"unclassified"},"geometry":{"type":"LineString","coordinates":[[101.6375643,3.0489113],[101.6375599,3.048067],[101.6375459,3.0478214],[101.6375086,3.0473759],[101.6374783,3.0469997],[101.6374783,3.046923],[101.6374826,3.0468439],[101.6374995,3.0467849],[101.6375414,3.046641],[101.6377007,3.0460087],[101.6377105,3.0459304],[101.6377098,3.0455703],[101.637709,3.0452008],[101.6377105,3.044815],[101.6377113,3.0446188]]}},{"type":"Feature","properties":{"osmId":131672407,"name":"Jalan Kasawari 1","highway":"residential"},"geometry":{"type":"LineString","coordinates":[[101.6321019,3.0416429],[101.6321118,3.0416967],[101.6321426,3.0419206],[101.6321312,3.0420368],[101.6320897,3.0421904],[101.6320658,3.042255],[101.6318978,3.04271],[101.6318749,3.0427866],[101.6318345,3.0433481],[101.6319507,3.0437921],[101.6319834,3.0439172],[101.6320598,3.0441874],[101.6320622,3.0442703],[101.6320322,3.04445],[101.6319793,3.0450021],[101.6319589,3.0450776],[101.631858,3.0452891]]}},{"type":"Feature","properties":{"osmId":131672418,"name":"Jalan BK 4/1E","highway":"residential"},"geometry":{"type":"LineString","coordinates":[[101.6387146,3.0488703],[101.6387143,3.0480731]]}},{"type":"Feature","properties":{"osmId":131672422,"name":"Jalan BK 4/3F","highway":"residential"},"geometry":{"type":"LineString","coordinates":[[101.6390798,3.0455693],[101.6399434,3.0455659]]}},{"type":"Feature","properties":{"osmId":131672427,"name":"Jalan BK 3/8C","highway":"residential"},"geometry":{"type":"LineString","coordinates":[[101.6366224,3.0517711],[101.6375886,3.0517454]]}},{"type":"Feature","properties":{"osmId":131672432,"name":"","highway":"residential"},"geometry":{"type":"LineString","coordinates":[[101.6389836,3.0480746],[101.6389844,3.0476299]]}},{"type":"Feature","properties":{"osmId":131672438,"name":"","highway":"residential"},"geometry":{"type":"LineString","coordinates":[[101.638548,3.0458098],[101.6390811,3.0458045]]}},{"type":"Feature","properties":{"osmId":131672444,"name":"Jalan BK 4/3D","highway":"residential"},"geometry":{"type":"LineString","coordinates":[[101.6390765,3.0445105],[101.6399633,3.0445122]]}},{"type":"Feature","properties":{"osmId":131672450,"name":"Jalan TPK 2/6","highway":"unclassified"},"geometry":{"type":"LineString","coordinates":[[101.6358793,3.0452476],[101.6368904,3.0452226],[101.637709,3.0452008]]}},{"type":"Feature","properties":{"osmId":131672453,"name":"Jalan BK 4/1D","highway":"residential"},"geometry":{"type":"LineString","coordinates":[[101.6391444,3.0488746],[101.639145,3.0482587],[101.6391453,3.0480754]]}},{"type":"Feature","properties":{"osmId":131672458,"name":"Jalan BK 3/8D","highway":"residential"},"geometry":{"type":"LineString","coordinates":[[101.6366123,3.0512413],[101.6375689,3.0512317]]}},{"type":"Feature","properties":{"osmId":131672463,"name":"Jalan BK 3/8F","highway":"residential"},"geometry":{"type":"LineString","coordinates":[[101.6365923,3.0502004],[101.6375956,3.0501854]]}},{"type":"Feature","properties":{"osmId":131672468,"name":"Jalan TPK 2/5","highway":"unclassified"},"geometry":{"type":"LineString","coordinates":[[101.6358961,3.0459736],[101.6369144,3.0459519],[101.6377105,3.0459304]]}},{"type":"Feature","properties":{"osmId":131672471,"name":"Jalan TBK 1/3A","highway":"residential"},"geometry":{"type":"LineString","coordinates":[[101.6363126,3.0433219],[101.6370228,3.043324]]}},{"type":"Feature","properties":{"osmId":131672479,"name":"Jalan BK 4/3E","highway":"residential"},"geometry":{"type":"LineString","coordinates":[[101.6390805,3.0450449],[101.639915,3.0450461]]}},{"type":"Feature","properties":{"osmId":131672484,"name":"Jalan BK 3/10A","highway":"residential"},"geometry":{"type":"LineString","coordinates":[[101.6351543,3.0502304],[101.6359779,3.0502162]]}},{"type":"Feature","properties":{"osmId":131672486,"name":"Jalan BK 4/1F","highway":"residential"},"geometry":{"type":"LineString","coordinates":[[101.6382784,3.0488658],[101.6382729,3.0480708]]}},{"type":"Feature","properties":{"osmId":131672490,"name":"Jalan TPK 2/3","highway":"unclassified"},"geometry":{"type":"LineString","coordinates":[[101.6359026,3.0478818],[101.6370063,3.0478412],[101.6375459,3.0478214]]}},{"type":"Feature","properties":{"osmId":131672491,"name":"Jalan BK 4/1C","highway":"residential"},"geometry":{"type":"LineString","coordinates":[[101.6395885,3.0488791],[101.6395891,3.0480778]]}},{"type":"Feature","properties":{"osmId":131672497,"name":"Jalan BK 3/10C","highway":"residential"},"geometry":{"type":"LineString","coordinates":[[101.6359683,3.049682],[101.6350032,3.0497013]]}},{"type":"Feature","properties":{"osmId":131672517,"name":"Jalan BK 3/1","highway":"residential"},"geometry":{"type":"LineString","coordinates":[[101.6350032,3.0497013],[101.6350051,3.0500278],[101.635008,3.0505431],[101.6350094,3.0507714],[101.635022,3.0511707],[101.6350327,3.0515112],[101.6350386,3.0516992],[101.635052,3.0521238],[101.6350531,3.0521595],[101.6350546,3.0522056]]}},{"type":"Feature","properties":{"osmId":131672530,"name":"Persiaran Taman Perindustrian Kinrara","highway":"tertiary"},"geometry":{"type":"LineString","coordinates":[[101.6360453,3.0492267],[101.6359189,3.0491748],[101.6358752,3.0491441],[101.635817,3.0490867],[101.6357868,3.0490394],[101.6357716,3.0489859]]}},{"type":"Feature","properties":{"osmId":131672531,"name":"Jalan BK 4/3","highway":"residential"},"geometry":{"type":"LineString","coordinates":[[101.6390761,3.0439756],[101.6390765,3.0445105],[101.6390792,3.0448766],[101.6390805,3.0450449],[101.6390798,3.0455693],[101.6390811,3.0458045]]}},{"type":"Feature","properties":{"osmId":131672593,"name":"Jalan BK 4/1K","highway":"residential"},"geometry":{"type":"LineString","coordinates":[[101.6399902,3.0471937],[101.6407758,3.0471934],[101.641526,3.0471932]]}},{"type":"Feature","properties":{"osmId":131672613,"name":"Jalan BK 3/7","highway":"residential"},"geometry":{"type":"LineString","coordinates":[[101.6377626,3.05294],[101.6377584,3.0527682],[101.6377441,3.0521888],[101.6377311,3.0516584]]}},{"type":"Feature","properties":{"osmId":131672614,"name":"Jalan BK 4/1G","highway":"residential"},"geometry":{"type":"LineString","coordinates":[[101.638069,3.0476283],[101.6389844,3.0476299],[101.6398808,3.0476314]]}},{"type":"Feature","properties":{"osmId":131672623,"name":"Jalan BK 3/10","highway":"residential"},"geometry":{"type":"LineString","coordinates":[[101.6359875,3.0507466],[101.6359779,3.0502162],[101.6359763,3.0501276],[101.6359683,3.049682]]}},{"type":"Feature","properties":{"osmId":131672624,"name":"Jalan BK 3/1","highway":"residential"},"geometry":{"type":"LineString","coordinates":[[101.6348039,3.0494327],[101.6348735,3.049453],[101.6349154,3.0494803],[101.6349547,3.0495247],[101.6349823,3.0495713],[101.6350032,3.0497013]]}},{"type":"Feature","properties":{"osmId":131672640,"name":"Jalan TBK 1/3","highway":"residential"},"geometry":{"type":"LineString","coordinates":[[101.636315,3.0438265],[101.6363126,3.0433219],[101.6363112,3.0430258],[101.6363104,3.0428655],[101.6363082,3.0423995]]}},{"type":"Feature","properties":{"osmId":131672648,"name":"Jalan BK 3/1","highway":"residential"},"geometry":{"type":"LineString","coordinates":[[101.6350032,3.0497013],[101.6350314,3.0496283],[101.6350436,3.0495681],[101.6350625,3.0495105],[101.6350821,3.0494701],[101.6351144,3.0494353],[101.635146,3.0494112],[101.6351888,3.0493847]]}},{"type":"Feature","properties":{"osmId":131672661,"name":"Jalan Kasawari 6","highway":"residential"},"geometry":{"type":"LineString","coordinates":[[101.6309073,3.0443656],[101.6309668,3.0443701],[101.631229,3.0443897],[101.6320322,3.04445],[101.632527,3.0444871]]}},{"type":"Feature","properties":{"osmId":131672703,"name":"Jalan BK 3/9","highway":"residential"},"geometry":{"type":"LineString","coordinates":[[101.6350094,3.0507714],[101.6355219,3.0507584],[101.635758,3.0507524],[101.6359875,3.0507466],[101.6366025,3.0507311]]}},{"type":"Feature","properties":{"osmId":131672737,"name":"","highway":"service"},"geometry":{"type":"LineString","coordinates":[[101.6379437,3.0467406],[101.6378838,3.0469563],[101.6379064,3.0473422],[101.6379502,3.0480691],[101.6379595,3.048551],[101.6379642,3.0490165]]}},{"type":"Feature","properties":{"osmId":131672738,"name":"Jalan TBK 1/2","highway":"residential"},"geometry":{"type":"LineString","coordinates":[[101.6358252,3.0420579],[101.6358278,3.0424036],[101.6358379,3.0438263]]}},{"type":"Feature","properties":{"osmId":131672739,"name":"Jalan BK 4/1H","highway":"residential"},"geometry":{"type":"LineString","coordinates":[[101.6399881,3.0466192],[101.639988,3.0467586],[101.6399889,3.0469869],[101.6399902,3.0471937],[101.6399905,3.0475161],[101.6399906,3.0476484],[101.6399854,3.0480799]]}},{"type":"Feature","properties":{"osmId":131672749,"name":"Jalan BK 4/1L","highway":"residential"},"geometry":{"type":"LineString","coordinates":[[101.639988,3.0467586],[101.6407752,3.0467531],[101.6414052,3.0467487],[101.6414525,3.0467555],[101.6414945,3.0467756]]}},{"type":"Feature","properties":{"osmId":131672756,"name":"Jalan TPK 1/5","highway":"unclassified"},"geometry":{"type":"LineString","coordinates":[[101.6338803,3.0468572],[101.6343578,3.0468506],[101.6346314,3.0468468],[101.6347215,3.0468455],[101.6349994,3.0468454],[101.6350982,3.0468438],[101.6354367,3.0468381],[101.6355833,3.0468357],[101.6356619,3.0468342]]}},{"type":"Feature","properties":{"osmId":131672764,"name":"Jalan TPK 2/8","highway":"unclassified"},"geometry":{"type":"LineString","coordinates":[[101.6377923,3.0491876],[101.6376991,3.0491423],[101.6376667,3.0491155],[101.6376466,3.0490989],[101.637611,3.0490514],[101.6375797,3.0489881],[101.6375643,3.0489113]]}},{"type":"Feature","properties":{"osmId":136488841,"name":"Jalan BK 3/1C","highway":"residential"},"geometry":{"type":"LineString","coordinates":[[101.6340687,3.0511832],[101.635022,3.0511707]]}},{"type":"Feature","properties":{"osmId":136488843,"name":"Jalan BK 3/1D","highway":"residential"},"geometry":{"type":"LineString","coordinates":[[101.6340068,3.0505637],[101.635008,3.0505431]]}},{"type":"Feature","properties":{"osmId":136488845,"name":"Jalan BK 3/1B","highway":"residential"},"geometry":{"type":"LineString","coordinates":[[101.6341061,3.0517094],[101.6350386,3.0516992]]}},{"type":"Feature","properties":{"osmId":136488846,"name":"Jalan BK 3/1E","highway":"residential"},"geometry":{"type":"LineString","coordinates":[[101.6339697,3.0500567],[101.6350051,3.0500278]]}},{"type":"Feature","properties":{"osmId":189479260,"name":"Jalan TPK 1/3","highway":"unclassified"},"geometry":{"type":"LineString","coordinates":[[101.6347198,3.0478013],[101.6343713,3.0478],[101.6341116,3.0477991],[101.63406,3.0477879],[101.6340191,3.0477619],[101.6339912,3.0477176],[101.63398,3.047666],[101.6338803,3.0468572],[101.6338426,3.0465473],[101.6338292,3.0464377],[101.6338211,3.0463905],[101.6338174,3.04635],[101.6338209,3.0463192],[101.6338348,3.0462883],[101.6338621,3.0462612],[101.6339007,3.0462538]]}},{"type":"Feature","properties":{"osmId":189479261,"name":"Jalan TPK 1/8","highway":"unclassified"},"geometry":{"type":"LineString","coordinates":[[101.6347069,3.0442516],[101.6347062,3.0445954],[101.6347055,3.0449907],[101.6347045,3.0452612],[101.6347012,3.0462452]]}},{"type":"Feature","properties":{"osmId":189479262,"name":"Jalan TPK 1/9","highway":"unclassified"},"geometry":{"type":"LineString","coordinates":[[101.6347055,3.0449907],[101.6338746,3.0449933],[101.6337994,3.044986],[101.633735,3.0449604],[101.633688,3.0449195],[101.6336615,3.0448687],[101.6336441,3.0446164],[101.6336273,3.0444499],[101.6336374,3.0443754],[101.6336623,3.0443177],[101.6337113,3.0442836],[101.6337771,3.0442669]]}},{"type":"Feature","properties":{"osmId":189479263,"name":"Jalan TPK 1/2","highway":"unclassified"},"geometry":{"type":"LineString","coordinates":[[101.6347215,3.0468455],[101.6347199,3.0477226],[101.6347198,3.0478013],[101.6347197,3.0486833]]}},{"type":"Feature","properties":{"osmId":189479264,"name":"Jalan TPK 1/4","highway":"unclassified"},"geometry":{"type":"LineString","coordinates":[[101.6344304,3.0486879],[101.6347197,3.0486833],[101.6351251,3.048677],[101.635458,3.0486719],[101.6356049,3.0486697]]}},{"type":"Feature","properties":{"osmId":189479562,"name":"Lebuhraya Bukit Jalil","highway":"trunk"},"geometry":{"type":"LineString","coordinates":[[101.6397438,3.0493422],[101.6399442,3.0493491],[101.6403412,3.0493533],[101.6405053,3.049355],[101.6406743,3.0493647],[101.6409057,3.0493892],[101.6412431,3.0494535],[101.641363,3.0494824],[101.6414358,3.0495],[101.6415388,3.0495185]]}},{"type":"Feature","properties":{"osmId":202512702,"name":"","highway":"service"},"geometry":{"type":"LineString","coordinates":[[101.6329608,3.050263],[101.6328458,3.050354],[101.6326813,3.0504575],[101.6325813,3.0505209],[101.6325212,3.050559],[101.6323804,3.0506484],[101.6322397,3.0507359],[101.6322393,3.0507964],[101.6322865,3.0512125],[101.6322961,3.0512451],[101.6323157,3.0512754],[101.6324503,3.0512562],[101.6325862,3.0512482],[101.6326317,3.0512439],[101.6327419,3.0512334],[101.6328638,3.0512218],[101.6329059,3.0512157],[101.6329401,3.0511805]]}},{"type":"Feature","properties":{"osmId":202512706,"name":"","highway":"service"},"geometry":{"type":"LineString","coordinates":[[101.6328458,3.050354],[101.6328853,3.0507879],[101.6329306,3.0511287],[101.6329401,3.0511805]]}},{"type":"Feature","properties":{"osmId":202512713,"name":"","highway":"service"},"geometry":{"type":"LineString","coordinates":[[101.6323804,3.0506484],[101.6324192,3.0509747],[101.6324503,3.0512562]]}},{"type":"Feature","properties":{"osmId":202512715,"name":"","highway":"service"},"geometry":{"type":"LineString","coordinates":[[101.6334894,3.051058],[101.633352,3.0499174],[101.6333278,3.049888],[101.6330421,3.0498529]]}},{"type":"Feature","properties":{"osmId":202512719,"name":"","highway":"service"},"geometry":{"type":"LineString","coordinates":[[101.6325212,3.050559],[101.632558,3.0509406],[101.6325862,3.0512482]]}},{"type":"Feature","properties":{"osmId":202512721,"name":"","highway":"service"},"geometry":{"type":"LineString","coordinates":[[101.6331718,3.0481761],[101.6330757,3.0483077],[101.633065,3.0483747],[101.6330939,3.0488584]]}},{"type":"Feature","properties":{"osmId":202512723,"name":"","highway":"service"},"geometry":{"type":"LineString","coordinates":[[101.6333156,3.051081],[101.6333568,3.0514526],[101.6334003,3.051878]]}},{"type":"Feature","properties":{"osmId":202512727,"name":"","highway":"service"},"geometry":{"type":"LineString","coordinates":[[101.6312947,3.050273],[101.6314075,3.050455],[101.6316407,3.0508388],[101.6316608,3.0508921],[101.6316675,3.0509486],[101.631579,3.0512084],[101.6315965,3.0512724],[101.6319116,3.0517495],[101.6320404,3.0518298],[101.6321235,3.0518512],[101.6322603,3.0518432],[101.6325983,3.0517896],[101.6327109,3.051787],[101.6327968,3.0518057],[101.6328544,3.0518429],[101.632904,3.0519102],[101.633246,3.0525822],[101.6333386,3.0527137],[101.6333895,3.0527644],[101.6336712,3.0528635],[101.633765,3.0529359],[101.6337677,3.052976],[101.6337409,3.0530055],[101.6333183,3.0531957],[101.6332152,3.0532332],[101.6335008,3.0537071],[101.6335397,3.0537501],[101.63358,3.0537581],[101.6336001,3.0537392],[101.6336041,3.0537046],[101.63358,3.0536376],[101.6333183,3.0531957]]}},{"type":"Feature","properties":{"osmId":202512733,"name":"","highway":"service"},"geometry":{"type":"LineString","coordinates":[[101.6326813,3.0504575],[101.6327083,3.0508281],[101.6327419,3.0512334]]}},{"type":"Feature","properties":{"osmId":202529829,"name":"Jalan TBK 1/1","highway":"residential"},"geometry":{"type":"LineString","coordinates":[[101.6371106,3.0437824],[101.6370729,3.0438091],[101.6370181,3.043821],[101.6369033,3.043822],[101.6367053,3.0438237],[101.636315,3.0438265],[101.6358379,3.0438263],[101.6357086,3.0438277]]}},{"type":"Feature","properties":{"osmId":202529840,"name":"","highway":"footway"},"geometry":{"type":"LineString","coordinates":[[101.6364448,3.0489419],[101.6364499,3.0490334],[101.6364565,3.0490723],[101.6364729,3.0491047],[101.6365,3.0491206],[101.6365424,3.0491304]]}},{"type":"Feature","properties":{"osmId":202529844,"name":"","highway":"service"},"geometry":{"type":"LineString","coordinates":[[101.6372622,3.0429108],[101.6372599,3.0427552],[101.6372763,3.042726],[101.6373001,3.0427097],[101.6376438,3.0427047],[101.6377859,3.0427026],[101.6381612,3.0426971],[101.6381681,3.0436299],[101.6381414,3.0436924],[101.6380648,3.0438081],[101.6380246,3.0438322],[101.6378367,3.0438343],[101.6376663,3.0438362],[101.6373188,3.04384],[101.6372897,3.0438242],[101.6372756,3.0437995],[101.6372729,3.0436177],[101.6372622,3.0429108]]}},{"type":"Feature","properties":{"osmId":202529854,"name":"","highway":"service"},"geometry":{"type":"LineString","coordinates":[[101.6377859,3.0427026],[101.6377879,3.0428889],[101.6377939,3.043168],[101.6377817,3.0431832],[101.6376845,3.0431818],[101.6376723,3.0431684],[101.6376438,3.0427047]]}},{"type":"Feature","properties":{"osmId":202529860,"name":"","highway":"service"},"geometry":{"type":"LineString","coordinates":[[101.6371439,3.043618],[101.6372104,3.0436145],[101.6372729,3.0436177]]}},{"type":"Feature","properties":{"osmId":202529862,"name":"","highway":"footway"},"geometry":{"type":"LineString","coordinates":[[101.6367652,3.0494947],[101.6370141,3.0494884],[101.637015,3.0495214],[101.6366208,3.0495312]]}},{"type":"Feature","properties":{"osmId":202529863,"name":"","highway":"footway"},"geometry":{"type":"LineString","coordinates":[[101.6366208,3.0495312],[101.6365822,3.0496726]]}},{"type":"Feature","properties":{"osmId":202545587,"name":"","highway":"service"},"geometry":{"type":"LineString","coordinates":[[101.6347199,3.0477226],[101.6350901,3.0477237],[101.635117,3.0477234],[101.6354489,3.04772]]}},{"type":"Feature","properties":{"osmId":202545596,"name":"","highway":"service"},"geometry":{"type":"LineString","coordinates":[[101.6347045,3.0452612],[101.6350729,3.0452597],[101.6354163,3.0452558]]}},{"type":"Feature","properties":{"osmId":202545604,"name":"","highway":"service"},"geometry":{"type":"LineString","coordinates":[[101.6368769,3.0444942],[101.6368833,3.0448389],[101.6368904,3.0452226],[101.6369002,3.0455758],[101.6369011,3.0456067],[101.6369144,3.0459519]]}},{"type":"Feature","properties":{"osmId":202545617,"name":"Jalan TPK 2/2","highway":"unclassified"},"geometry":{"type":"LineString","coordinates":[[101.6360555,3.0489526],[101.6364273,3.0489424],[101.6364448,3.0489419],[101.6372762,3.0489192],[101.6375643,3.0489113]]}},{"type":"Feature","properties":{"osmId":202545630,"name":"Jalan TPK 2/4","highway":"unclassified"},"geometry":{"type":"LineString","coordinates":[[101.6356619,3.0468342],[101.6357537,3.0468325],[101.6358835,3.0468298],[101.6361605,3.0468184],[101.6368798,3.0468018],[101.6374547,3.0467876],[101.6374995,3.0467849]]}},{"type":"Feature","properties":{"osmId":202545632,"name":"Jalan TPK 1/6","highway":"unclassified"},"geometry":{"type":"LineString","coordinates":[[101.6339007,3.0462538],[101.6346234,3.046246],[101.6347012,3.0462452],[101.634986,3.0462428],[101.6350873,3.0462419],[101.6354232,3.046239],[101.6355714,3.0462377],[101.6357375,3.0462323]]}},{"type":"Feature","properties":{"osmId":202545646,"name":"Jalan TPK 1/10","highway":"unclassified"},"geometry":{"type":"LineString","coordinates":[[101.6337771,3.0442669],[101.6347069,3.0442516],[101.6350874,3.044245],[101.6354204,3.0442392],[101.6354982,3.0442379],[101.6355701,3.0442372],[101.635713,3.0442343]]}},{"type":"Feature","properties":{"osmId":202545657,"name":"Jalan TPK 1/7","highway":"unclassified"},"geometry":{"type":"LineString","coordinates":[[101.6354204,3.0442392],[101.6354146,3.045024],[101.6354163,3.0452558],[101.6354232,3.046239]]}},{"type":"Feature","properties":{"osmId":202545661,"name":"Jalan TPK 2/1","highway":"unclassified"},"geometry":{"type":"LineString","coordinates":[[101.635939,3.0445501],[101.6358976,3.0445936],[101.6358734,3.0446473],[101.6358673,3.0447084],[101.6358676,3.0448646],[101.6358793,3.0452476],[101.6358766,3.0455905],[101.6358961,3.0459736],[101.6358835,3.0468298],[101.6359026,3.0478818],[101.6359307,3.0487622],[101.6359443,3.0488451],[101.6360555,3.0489526]]}},{"type":"Feature","properties":{"osmId":202545662,"name":"Jalan TPK 1/1","highway":"service"},"geometry":{"type":"LineString","coordinates":[[101.6354367,3.0468381],[101.6354489,3.04772],[101.6354549,3.0481523],[101.635458,3.0486719]]}},{"type":"Feature","properties":{"osmId":202545664,"name":"","highway":"service"},"geometry":{"type":"LineString","coordinates":[[101.634986,3.0462428],[101.6349903,3.046561],[101.6349994,3.0468454]]}},{"type":"Feature","properties":{"osmId":218621973,"name":"Lebuhraya Bukit Jalil","highway":"trunk"},"geometry":{"type":"LineString","coordinates":[[101.6414448,3.04931],[101.6412794,3.0492799],[101.6411508,3.049264],[101.6410171,3.0492518],[101.6402926,3.0491919],[101.6377923,3.0491876],[101.6375846,3.049193]]}},{"type":"Feature","properties":{"osmId":226728891,"name":"Jalan BK 4/1J","highway":"residential"},"geometry":{"type":"LineString","coordinates":[[101.641521,3.047544],[101.6415012,3.0475905],[101.6414733,3.0476246],[101.6414359,3.0476441],[101.6413881,3.0476525],[101.6407763,3.0476507],[101.6399906,3.0476484]]}},{"type":"Feature","properties":{"osmId":226730003,"name":"Jalan BK 3/5","highway":"residential"},"geometry":{"type":"LineString","coordinates":[[101.6400081,3.0516027],[101.639468,3.0516159],[101.6388759,3.0516304],[101.6378322,3.0516559]]}},{"type":"Feature","properties":{"osmId":226730014,"name":"Jalan BK 3/8E","highway":"residential"},"geometry":{"type":"LineString","coordinates":[[101.6366025,3.0507311],[101.6375812,3.0507063]]}},{"type":"Feature","properties":{"osmId":230948001,"name":"Persiaran Taman Perindustrian Kinrara","highway":"tertiary"},"geometry":{"type":"LineString","coordinates":[[101.6357716,3.0489859],[101.6357537,3.0468325],[101.6357375,3.0462323],[101.6357265,3.0458807],[101.635713,3.0442343],[101.6357086,3.0438277],[101.635696,3.0411041]]}},{"type":"Feature","properties":{"osmId":232956395,"name":"Jalan BK 3/3C","highway":"residential"},"geometry":{"type":"LineString","coordinates":[[101.6359683,3.049682],[101.636096,3.04968],[101.6365822,3.0496726],[101.6376789,3.049643]]}},{"type":"Feature","properties":{"osmId":232970502,"name":"Jalan BK 3/3B","highway":"residential"},"geometry":{"type":"LineString","coordinates":[[101.6399944,3.0505627],[101.6399961,3.0505901],[101.6400081,3.0516027]]}},{"type":"Feature","properties":{"osmId":232970503,"name":"Jalan BK 3/3B","highway":"residential"},"geometry":{"type":"LineString","coordinates":[[101.6387452,3.0496231],[101.6388697,3.0496192],[101.6389817,3.0496242],[101.6390349,3.0496295],[101.6391111,3.0496372],[101.6392282,3.049673],[101.6393488,3.0497197],[101.6394463,3.0497689],[101.6395538,3.0498385],[101.6396637,3.0499115],[101.6397604,3.0499881],[101.6398404,3.0500754],[101.6399021,3.0501768],[101.6399402,3.0502708],[101.6399686,3.0503727],[101.6399897,3.0504852],[101.6399944,3.0505627]]}},{"type":"Feature","properties":{"osmId":232970504,"name":"","highway":"service"},"geometry":{"type":"LineString","coordinates":[[101.6394225,3.0505766],[101.6399944,3.0505627]]}},{"type":"Feature","properties":{"osmId":232970505,"name":"","highway":"service"},"geometry":{"type":"LineString","coordinates":[[101.6387479,3.0501514],[101.6387452,3.0496231]]}},{"type":"Feature","properties":{"osmId":232970714,"name":"","highway":"service"},"geometry":{"type":"LineString","coordinates":[[101.6359476,3.051958],[101.6359476,3.0518348],[101.6359557,3.0518053],[101.6359825,3.0517892],[101.6360201,3.0517866],[101.6363607,3.0517777],[101.6366224,3.0517711]]}},{"type":"Feature","properties":{"osmId":232970721,"name":"","highway":"service"},"geometry":{"type":"LineString","coordinates":[[101.6363607,3.0517777],[101.636358,3.0520356]]}},{"type":"Feature","properties":{"osmId":232973445,"name":"","highway":"trunk_link"},"geometry":{"type":"LineString","coordinates":[[101.6395378,3.0493433],[101.639653,3.0493783],[101.6400192,3.0493931]]}},{"type":"Feature","properties":{"osmId":232973455,"name":"","highway":"service"},"geometry":{"type":"LineString","coordinates":[[101.6377052,3.050672],[101.6377879,3.050669],[101.6380666,3.0506589]]}},{"type":"Feature","properties":{"osmId":232973461,"name":"","highway":"service"},"geometry":{"type":"LineString","coordinates":[[101.6381504,3.0503513],[101.6380666,3.0506589],[101.638105,3.050895],[101.6381424,3.0511254],[101.638249,3.0512187],[101.6386116,3.0512099],[101.6390007,3.0512004],[101.6390382,3.0511923],[101.6390704,3.0511388],[101.6390684,3.0510826],[101.6390613,3.0508791],[101.6390516,3.0506004],[101.6390248,3.0505549],[101.6387164,3.0505067],[101.638652,3.0505201],[101.6383193,3.0508053],[101.6383824,3.0508681]]}},{"type":"Feature","properties":{"osmId":233125248,"name":"Jalan BK 4/2","highway":"residential"},"geometry":{"type":"LineString","coordinates":[[101.6385663,3.0427062],[101.6385686,3.042807],[101.6385532,3.0434411],[101.6385423,3.0438878],[101.6385419,3.0439744],[101.6385463,3.0449945],[101.6385465,3.0450429],[101.638548,3.0458098],[101.6385543,3.0459123],[101.6385702,3.0460065],[101.6385914,3.046098],[101.6386235,3.0461907],[101.6386672,3.046276]]}},{"type":"Feature","properties":{"osmId":233127352,"name":"","highway":"footway"},"geometry":{"type":"LineString","coordinates":[[101.6385686,3.042807],[101.6386123,3.0428325],[101.6387248,3.0429343],[101.6388268,3.0429985],[101.6388911,3.0430253],[101.6389582,3.0430468],[101.639049,3.043066],[101.6391455,3.043066],[101.6391911,3.0430607],[101.6392475,3.043058],[101.6392958,3.0430634],[101.6393896,3.0430821],[101.6394433,3.0430875],[101.6394942,3.0430821],[101.6395372,3.043058],[101.639572,3.0430285],[101.6396042,3.0430071],[101.6396766,3.0430178],[101.6397414,3.0430441],[101.6398031,3.0430709],[101.6398648,3.0430976],[101.6399211,3.0431325],[101.639977,3.0431812],[101.6400334,3.0432294],[101.6400763,3.0432723],[101.6401541,3.0433285],[101.6402027,3.0433628],[101.6402403,3.043403],[101.6402882,3.0434437],[101.6403606,3.0434839],[101.6404196,3.043508],[101.6404951,3.0435262],[101.6405457,3.0435321],[101.6406154,3.0435321]]}},{"type":"Feature","properties":{"osmId":233127353,"name":"","highway":"footway"},"geometry":{"type":"LineString","coordinates":[[101.6396207,3.0427589],[101.6395966,3.0428566],[101.6395935,3.0429214],[101.6395966,3.0429771],[101.6396042,3.0430071],[101.6396176,3.0430553],[101.6396444,3.0431223],[101.639669,3.0431941],[101.639669,3.0432851],[101.6396609,3.0433842],[101.6396525,3.0434785],[101.6396444,3.0435535]]}},{"type":"Feature","properties":{"osmId":233127357,"name":"","highway":"footway"},"geometry":{"type":"LineString","coordinates":[[101.6397414,3.0430441],[101.6397759,3.0429509],[101.6398134,3.0428973],[101.6398537,3.0428625],[101.6399184,3.0428352],[101.639977,3.042825],[101.6400924,3.042825],[101.6403472,3.0428196],[101.6404759,3.0428196],[101.640562,3.0428191]]}},{"type":"Feature","properties":{"osmId":233127359,"name":"","highway":"footway"},"geometry":{"type":"LineString","coordinates":[[101.639669,3.0431941],[101.639728,3.0433092],[101.6397678,3.0433955],[101.6398027,3.0434839],[101.6398402,3.0435723],[101.6398697,3.0436499],[101.6398992,3.0437196],[101.6399211,3.0437619],[101.6399399,3.0437958]]}},{"type":"Feature","properties":{"osmId":233128498,"name":"Jalan BK 4/2","highway":"residential"},"geometry":{"type":"LineString","coordinates":[[101.6386672,3.046276],[101.6387254,3.0463589],[101.6388615,3.046472],[101.6390113,3.046558],[101.639185,3.046608],[101.6393729,3.0466223],[101.6399881,3.0466192],[101.6406893,3.0466236],[101.6409176,3.0466092],[101.6410882,3.0465379],[101.6411777,3.0464783],[101.6412654,3.0464074],[101.641382,3.0462721],[101.6414671,3.0460827],[101.6414985,3.045814],[101.641491,3.0450502],[101.6414806,3.043981]]}},{"type":"Feature","properties":{"osmId":233128503,"name":"Jalan BK 4/3","highway":"residential"},"geometry":{"type":"LineString","coordinates":[[101.6390811,3.0458045],[101.6390899,3.0459156],[101.6391154,3.0459788],[101.6391669,3.0460369],[101.6392271,3.0460695],[101.6392996,3.0460829],[101.6393686,3.0460832],[101.6399908,3.0460863],[101.6400311,3.0460865],[101.6406856,3.0460898],[101.6407173,3.04609],[101.6407909,3.0460755],[101.6408524,3.0460494],[101.640902,3.0460095],[101.6409401,3.0459527],[101.6409522,3.0459017],[101.6409539,3.0458294]]}},{"type":"Feature","properties":{"osmId":233128507,"name":"","highway":"service"},"geometry":{"type":"LineString","coordinates":[[101.6399908,3.0460863],[101.6399881,3.0466192]]}},{"type":"Feature","properties":{"osmId":233128508,"name":"","highway":"service"},"geometry":{"type":"LineString","coordinates":[[101.6382284,3.0450372],[101.6385465,3.0450429]]}},{"type":"Feature","properties":{"osmId":233128510,"name":"","highway":"service"},"geometry":{"type":"LineString","coordinates":[[101.6382284,3.0461863],[101.6386235,3.0461907]]}},{"type":"Feature","properties":{"osmId":233128511,"name":"","highway":"residential"},"geometry":{"type":"LineString","coordinates":[[101.6393686,3.0460832],[101.6393729,3.0466223]]}},{"type":"Feature","properties":{"osmId":233336129,"name":"","highway":"footway"},"geometry":{"type":"LineString","coordinates":[[101.6389796,3.0467878],[101.6390239,3.0467878],[101.6390604,3.0467811],[101.6390986,3.046778],[101.639174,3.04678],[101.6392428,3.0467861],[101.6392846,3.0467894],[101.6393069,3.0467952],[101.6393859,3.046847],[101.639469,3.0468791],[101.6395629,3.0469086],[101.6396273,3.0469246],[101.6396916,3.0469461],[101.6397517,3.0469686],[101.6398349,3.0469927],[101.6398885,3.0469954],[101.6399889,3.0469869]]}},{"type":"Feature","properties":{"osmId":233336133,"name":"","highway":"footway"},"geometry":{"type":"LineString","coordinates":[[101.6393243,3.046703],[101.6393118,3.0467543],[101.6393069,3.0467952],[101.6393011,3.0468829],[101.6393242,3.0469327],[101.6393403,3.0469782],[101.6393521,3.0470382],[101.639336,3.0470971],[101.6393145,3.0471427],[101.6392732,3.0471844],[101.6392501,3.0472284],[101.6392448,3.0472712],[101.6392609,3.0473168],[101.6393011,3.0473543],[101.6393429,3.0473746],[101.6393923,3.047381],[101.6394459,3.047381]]}},{"type":"Feature","properties":{"osmId":233336134,"name":"","highway":"footway"},"geometry":{"type":"LineString","coordinates":[[101.6380662,3.0464351],[101.6382148,3.0464329],[101.6383489,3.0464409],[101.6385072,3.0464623],[101.6386654,3.0464891],[101.6387861,3.0465293],[101.6388762,3.0465791],[101.6389283,3.0466177],[101.6389605,3.0466847],[101.6389674,3.0467425],[101.6389796,3.0467878],[101.6389835,3.0468068],[101.6389647,3.0468242],[101.638935,3.0468575],[101.6388573,3.0469162],[101.6388077,3.0469832],[101.6388025,3.0470492],[101.6388454,3.047084],[101.6389084,3.0471389],[101.6389714,3.0472032],[101.6390047,3.0472726],[101.6389862,3.0474482]]}},{"type":"Feature","properties":{"osmId":297788290,"name":"Persiaran Taman Perindustrian Kinrara","highway":"tertiary"},"geometry":{"type":"LineString","coordinates":[[101.6355615,3.0411255],[101.6355701,3.0442372],[101.6355661,3.0443836],[101.6355496,3.0451103],[101.635557,3.0455152],[101.6355714,3.0462377],[101.6355833,3.0468357],[101.6356049,3.0486697],[101.6356111,3.0490467],[101.6355969,3.0491078],[101.6355696,3.0491572],[101.6355138,3.0491892],[101.6353731,3.0492373]]}},{"type":"Feature","properties":{"osmId":608480582,"name":"","highway":"service"},"geometry":{"type":"LineString","coordinates":[[101.6388759,3.0516304],[101.6388886,3.0521614],[101.6389024,3.0527332]]}},{"type":"Feature","properties":{"osmId":608543018,"name":"","highway":"service"},"geometry":{"type":"LineString","coordinates":[[101.6320025,3.0473126],[101.6318892,3.0480719],[101.6318362,3.0481663],[101.6317196,3.0482464],[101.6307593,3.0479912],[101.6306751,3.0479433],[101.630518,3.0475997],[101.6305126,3.0475225],[101.6305795,3.0471876],[101.6305674,3.0471418],[101.6305113,3.0471361],[101.6304651,3.0471847]]}},{"type":"Feature","properties":{"osmId":608543022,"name":"","highway":"service"},"geometry":{"type":"LineString","coordinates":[[101.6320025,3.0473126],[101.6321586,3.0472539],[101.6322058,3.0472447],[101.6322777,3.0472306],[101.632343,3.0472522],[101.6324459,3.0473462],[101.6326069,3.0475274],[101.6326616,3.0476061],[101.632699,3.047717],[101.6327019,3.0477922],[101.63267,3.0480029]]}},{"type":"Feature","properties":{"osmId":608551684,"name":"","highway":"service"},"geometry":{"type":"LineString","coordinates":[[101.6358766,3.0455905],[101.6369002,3.0455758],[101.6377098,3.0455703]]}},{"type":"Feature","properties":{"osmId":608551685,"name":"","highway":"service"},"geometry":{"type":"LineString","coordinates":[[101.6358676,3.0448646],[101.6368833,3.0448389],[101.6377105,3.044815]]}},{"type":"Feature","properties":{"osmId":608551686,"name":"","highway":"service"},"geometry":{"type":"LineString","coordinates":[[101.6350874,3.044245],[101.6350729,3.0452597],[101.6350873,3.0462419]]}},{"type":"Feature","properties":{"osmId":608551687,"name":"","highway":"service"},"geometry":{"type":"LineString","coordinates":[[101.6336441,3.0446164],[101.6347062,3.0445954]]}},{"type":"Feature","properties":{"osmId":608551688,"name":"","highway":"service"},"geometry":{"type":"LineString","coordinates":[[101.6338426,3.0465473],[101.6346275,3.0465547],[101.6349903,3.046561]]}},{"type":"Feature","properties":{"osmId":608551689,"name":"","highway":"service"},"geometry":{"type":"LineString","coordinates":[[101.6346314,3.0468468],[101.6346275,3.0465547],[101.6346234,3.046246]]}},{"type":"Feature","properties":{"osmId":608551690,"name":"","highway":"service"},"geometry":{"type":"LineString","coordinates":[[101.6351251,3.048677],[101.635117,3.0477234],[101.6350982,3.0468438]]}},{"type":"Feature","properties":{"osmId":608551691,"name":"","highway":"service"},"geometry":{"type":"LineString","coordinates":[[101.6343713,3.0478],[101.6343578,3.0468506]]}},{"type":"Feature","properties":{"osmId":608551693,"name":"","highway":"service"},"geometry":{"type":"LineString","coordinates":[[101.6335263,3.0492788],[101.6335331,3.0489604],[101.6330107,3.0489967]]}},{"type":"Feature","properties":{"osmId":608551697,"name":"","highway":"service"},"geometry":{"type":"LineString","coordinates":[[101.6326748,3.0436044],[101.6324227,3.0436609]]}},{"type":"Feature","properties":{"osmId":608551698,"name":"","highway":"service"},"geometry":{"type":"LineString","coordinates":[[101.6324834,3.0449508],[101.6327351,3.0449757]]}},{"type":"Feature","properties":{"osmId":608551699,"name":"","highway":"service"},"geometry":{"type":"LineString","coordinates":[[101.6325637,3.0441934],[101.6328102,3.0441816]]}},{"type":"Feature","properties":{"osmId":608551700,"name":"","highway":"service"},"geometry":{"type":"LineString","coordinates":[[101.6324227,3.0436609],[101.6320512,3.0437637],[101.6319507,3.0437921]]}},{"type":"Feature","properties":{"osmId":608553354,"name":"","highway":"service"},"geometry":{"type":"LineString","coordinates":[[101.6378273,3.0435066],[101.6378367,3.0438343]]}},{"type":"Feature","properties":{"osmId":608553355,"name":"","highway":"service"},"geometry":{"type":"LineString","coordinates":[[101.6376663,3.0438362],[101.6376731,3.0435187]]}},{"type":"Feature","properties":{"osmId":608553356,"name":"","highway":"service"},"geometry":{"type":"LineString","coordinates":[[101.6376731,3.0435187],[101.6378273,3.0435066]]}},{"type":"Feature","properties":{"osmId":608554070,"name":"","highway":"footway"},"geometry":{"type":"LineString","coordinates":[[101.6367566,3.0491552],[101.6367652,3.0494947]]}},{"type":"Feature","properties":{"osmId":608554071,"name":"","highway":"footway"},"geometry":{"type":"LineString","coordinates":[[101.6365424,3.0491304],[101.6369875,3.0491238],[101.6369881,3.0491494],[101.6367566,3.0491552]]}},{"type":"Feature","properties":{"osmId":608561781,"name":"","highway":"service"},"geometry":{"type":"LineString","coordinates":[[101.6378179,3.0461649],[101.6380429,3.046196]]}},{"type":"Feature","properties":{"osmId":608561782,"name":"","highway":"service"},"geometry":{"type":"LineString","coordinates":[[101.6380604,3.0457473],[101.637838,3.0457484]]}},{"type":"Feature","properties":{"osmId":608561783,"name":"","highway":"service"},"geometry":{"type":"LineString","coordinates":[[101.6380714,3.0453038],[101.637838,3.0453132]]}},{"type":"Feature","properties":{"osmId":608561784,"name":"","highway":"service"},"geometry":{"type":"LineString","coordinates":[[101.6379437,3.0467406],[101.6380379,3.0463216],[101.6380429,3.046196],[101.6380526,3.045952],[101.6380604,3.0457473],[101.6380674,3.0455636],[101.6380714,3.0453038],[101.6380781,3.0448793]]}},{"type":"Feature","properties":{"osmId":608561785,"name":"","highway":"service"},"geometry":{"type":"LineString","coordinates":[[101.6375414,3.046641],[101.6379437,3.0467406]]}},{"type":"Feature","properties":{"osmId":608808561,"name":"","highway":"service"},"geometry":{"type":"LineString","coordinates":[[101.6363112,3.0430258],[101.6359363,3.0430218]]}},{"type":"Feature","properties":{"osmId":612927605,"name":"","highway":"service"},"geometry":{"type":"LineString","coordinates":[[101.6332896,3.0478517],[101.6333038,3.0476207],[101.6333148,3.0475929],[101.633418,3.0475787],[101.6334467,3.0476029],[101.6334325,3.0478396],[101.6332896,3.0478517],[101.6331803,3.0478738],[101.6331548,3.047895],[101.6331414,3.0479405],[101.6331718,3.0481761],[101.6332541,3.0487881],[101.6332215,3.0488293],[101.6330939,3.0488584],[101.6328839,3.0488705],[101.6327093,3.0488878]]}},{"type":"Feature","properties":{"osmId":779978488,"name":"Lebuhraya Bukit Jalil","highway":"trunk"},"geometry":{"type":"LineString","coordinates":[[101.6320135,3.0496433],[101.6330152,3.0496085]]}},{"type":"Feature","properties":{"osmId":779978489,"name":"Lebuhraya Bukit Jalil","highway":"trunk"},"geometry":{"type":"LineString","coordinates":[[101.6305805,3.0497257],[101.6320135,3.0496433]]}},{"type":"Feature","properties":{"osmId":780248940,"name":"Lebuhraya Bukit Jalil","highway":"trunk"},"geometry":{"type":"LineString","coordinates":[[101.6351888,3.0493847],[101.6353512,3.0493745],[101.6360771,3.0493596]]}},{"type":"Feature","properties":{"osmId":780248941,"name":"Lebuhraya Bukit Jalil","highway":"trunk"},"geometry":{"type":"LineString","coordinates":[[101.6348039,3.0494327],[101.6351888,3.0493847]]}},{"type":"Feature","properties":{"osmId":780248942,"name":"Lebuhraya Bukit Jalil","highway":"trunk"},"geometry":{"type":"LineString","coordinates":[[101.6344766,3.0494895],[101.6348039,3.0494327]]}},{"type":"Feature","properties":{"osmId":780248943,"name":"Lebuhraya Bukit Jalil","highway":"trunk"},"geometry":{"type":"LineString","coordinates":[[101.6330152,3.0496085],[101.633645,3.0495991],[101.6339282,3.0495846],[101.6344766,3.0494895]]}},{"type":"Feature","properties":{"osmId":780250520,"name":"","highway":"footway"},"geometry":{"type":"LineString","coordinates":[[101.6366146,3.049214],[101.6366132,3.0491588]]}},{"type":"Feature","properties":{"osmId":780250521,"name":"","highway":"steps"},"geometry":{"type":"LineString","coordinates":[[101.6366132,3.0491588],[101.6367566,3.0491552]]}},{"type":"Feature","properties":{"osmId":780250522,"name":"","highway":"footway"},"geometry":{"type":"LineString","coordinates":[[101.6366105,3.0493486],[101.6366142,3.0494984]]}},{"type":"Feature","properties":{"osmId":780250523,"name":"","highway":"steps"},"geometry":{"type":"LineString","coordinates":[[101.6366142,3.0494984],[101.6367652,3.0494947]]}},{"type":"Feature","properties":{"osmId":780251647,"name":"Lebuhraya Bukit Jalil","highway":"trunk"},"geometry":{"type":"LineString","coordinates":[[101.6395378,3.0493433],[101.6397438,3.0493422]]}},{"type":"Feature","properties":{"osmId":780251648,"name":"Lebuhraya Bukit Jalil","highway":"trunk"},"geometry":{"type":"LineString","coordinates":[[101.6392623,3.0493434],[101.6395378,3.0493433]]}},{"type":"Feature","properties":{"osmId":780251649,"name":"Lebuhraya Bukit Jalil","highway":"trunk"},"geometry":{"type":"LineString","coordinates":[[101.6385944,3.0493464],[101.6390732,3.0493442]]}},{"type":"Feature","properties":{"osmId":780251650,"name":"Lebuhraya Bukit Jalil","highway":"trunk"},"geometry":{"type":"LineString","coordinates":[[101.6360771,3.0493596],[101.6362031,3.049357],[101.6366105,3.0493486],[101.6367762,3.0493466],[101.6385944,3.0493464]]}},{"type":"Feature","properties":{"osmId":782120744,"name":"","highway":"trunk_link"},"geometry":{"type":"LineString","coordinates":[[101.6397438,3.0493422],[101.6399447,3.049292],[101.6405514,3.0492911]]}},{"type":"Feature","properties":{"osmId":855612146,"name":"","highway":"service"},"geometry":{"type":"LineString","coordinates":[[101.6328454,3.0471475],[101.6328271,3.0472118],[101.6327975,3.0472625],[101.6327531,3.047299],[101.6327058,3.04732],[101.63267,3.0473371],[101.6326073,3.0473394],[101.6325168,3.0473286]]}},{"type":"Feature","properties":{"osmId":858989606,"name":"","highway":"service"},"geometry":{"type":"LineString","coordinates":[[101.6326069,3.0475274],[101.6326176,3.047635],[101.6326141,3.0478263],[101.6325299,3.0481498],[101.6324843,3.0484596],[101.632493,3.0485778],[101.6325128,3.048848],[101.6325572,3.0490303],[101.632621,3.049147]]}},{"type":"Feature","properties":{"osmId":858989607,"name":"","highway":"service"},"geometry":{"type":"LineString","coordinates":[[101.6329069,3.0475046],[101.6328123,3.0474915],[101.6327104,3.0474653],[101.6325988,3.0474157],[101.6325168,3.0473286],[101.6322166,3.0470393],[101.6321654,3.0469994],[101.6321005,3.047004],[101.6320435,3.0471031],[101.6320025,3.0473126]]}},{"type":"Feature","properties":{"osmId":930978001,"name":"","highway":"service"},"geometry":{"type":"LineString","coordinates":[[101.6375086,3.0473759],[101.6379064,3.0473422]]}},{"type":"Feature","properties":{"osmId":931367099,"name":"","highway":"service"},"geometry":{"type":"LineString","coordinates":[[101.6333568,3.0514526],[101.6331817,3.0513945],[101.6330096,3.0512452],[101.6329401,3.0511805]]}},{"type":"Feature","properties":{"osmId":931368211,"name":"","highway":"service"},"geometry":{"type":"LineString","coordinates":[[101.6329608,3.050263],[101.6330418,3.051106]]}},{"type":"Feature","properties":{"osmId":966671598,"name":"Persiaran Puchong Jaya Selatan","highway":"secondary"},"geometry":{"type":"LineString","coordinates":[[101.6330879,3.0494595],[101.632864,3.0494295],[101.632803,3.0494029],[101.6327488,3.0493478],[101.6327366,3.0493063],[101.6327259,3.0492362],[101.6327158,3.0490251],[101.6327093,3.0488878]]}},{"type":"Feature","properties":{"osmId":966671600,"name":"Persiaran Puchong Jaya Selatan","highway":"secondary"},"geometry":{"type":"LineString","coordinates":[[101.632621,3.049147],[101.6326205,3.0492701],[101.6325934,3.0493271],[101.6325317,3.0493845],[101.632458,3.049424],[101.6323194,3.0494855]]}},{"type":"Feature","properties":{"osmId":966671601,"name":"Persiaran Puchong Jaya Selatan","highway":"secondary"},"geometry":{"type":"LineString","coordinates":[[101.6326133,3.0488891],[101.632621,3.049147]]}},{"type":"Feature","properties":{"osmId":984687940,"name":"","highway":"service"},"geometry":{"type":"LineString","coordinates":[[101.6335263,3.0492788],[101.6335014,3.0493879],[101.633465,3.0494186],[101.6333944,3.0494548]]}},{"type":"Feature","properties":{"osmId":984687941,"name":"","highway":"service"},"geometry":{"type":"LineString","coordinates":[[101.6337667,3.0494492],[101.6336449,3.0494141],[101.6336071,3.0493883],[101.6335469,3.0493196],[101.6335263,3.0492788]]}},{"type":"Feature","properties":{"osmId":993857612,"name":"Jalan BK 3/7","highway":"residential"},"geometry":{"type":"LineString","coordinates":[[101.6377311,3.0516584],[101.6377052,3.050672],[101.6376926,3.050179],[101.6376789,3.049643]]}},{"type":"Feature","properties":{"osmId":1051475608,"name":"","highway":"residential"},"geometry":{"type":"LineString","coordinates":[[101.6385465,3.0450429],[101.6390805,3.0450449]]}},{"type":"Feature","properties":{"osmId":1068570907,"name":"","highway":"footway"},"geometry":{"type":"LineString","coordinates":[[101.6365424,3.0491304],[101.6363727,3.0491372],[101.6363077,3.0492208]]}},{"type":"Feature","properties":{"osmId":1068570908,"name":"","highway":"footway"},"geometry":{"type":"LineString","coordinates":[[101.6366208,3.0495312],[101.6362109,3.049534],[101.6362031,3.049357]]}},{"type":"Feature","properties":{"osmId":1116126041,"name":"","highway":"service"},"geometry":{"type":"LineString","coordinates":[[101.6334894,3.051058],[101.6336542,3.0510295],[101.6335407,3.0500875]]}},{"type":"Feature","properties":{"osmId":1118157236,"name":"","highway":"service"},"geometry":{"type":"LineString","coordinates":[[101.6330107,3.0489967],[101.6330208,3.0492491],[101.6335263,3.0492788]]}},{"type":"Feature","properties":{"osmId":1120289367,"name":"Jalan TBK 1/10","highway":"residential"},"geometry":{"type":"LineString","coordinates":[[101.6356822,3.0395894],[101.636631,3.039567],[101.6370506,3.0395681],[101.6371018,3.0395961],[101.6371258,3.039643],[101.637131,3.0398452],[101.6371307,3.0403704],[101.6371306,3.0404121],[101.6371377,3.0410951],[101.6371415,3.0414563],[101.6371451,3.0418023],[101.6371417,3.042091],[101.6371381,3.0423971],[101.6371393,3.0429108],[101.6371439,3.043618],[101.6371106,3.0437824]]}},{"type":"Feature","properties":{"osmId":1163586525,"name":"Lebuhraya Bukit Jalil","highway":"trunk"},"geometry":{"type":"LineString","coordinates":[[101.6323194,3.0494855],[101.6319019,3.0495049]]}},{"type":"Feature","properties":{"osmId":1163586526,"name":"Lebuhraya Bukit Jalil","highway":"trunk"},"geometry":{"type":"LineString","coordinates":[[101.6330879,3.0494595],[101.6323194,3.0494855]]}},{"type":"Feature","properties":{"osmId":1163586527,"name":"Lebuhraya Bukit Jalil","highway":"trunk"},"geometry":{"type":"LineString","coordinates":[[101.6333944,3.0494548],[101.6330879,3.0494595]]}},{"type":"Feature","properties":{"osmId":1163586528,"name":"Lebuhraya Bukit Jalil","highway":"trunk"},"geometry":{"type":"LineString","coordinates":[[101.6337667,3.0494492],[101.6333944,3.0494548]]}},{"type":"Feature","properties":{"osmId":1163586529,"name":"Lebuhraya Bukit Jalil","highway":"trunk"},"geometry":{"type":"LineString","coordinates":[[101.6339251,3.0494346],[101.6337667,3.0494492]]}},{"type":"Feature","properties":{"osmId":1163586530,"name":"Lebuhraya Bukit Jalil","highway":"trunk"},"geometry":{"type":"LineString","coordinates":[[101.6343686,3.0493509],[101.6341324,3.049397],[101.6339251,3.0494346]]}},{"type":"Feature","properties":{"osmId":1171033574,"name":"Persiaran Puchong Jaya Selatan","highway":"secondary"},"geometry":{"type":"LineString","coordinates":[[101.6306353,3.0451391],[101.6311305,3.0453231],[101.6314659,3.0454854],[101.6320018,3.0457314],[101.632201,3.0458497],[101.6323626,3.0459571],[101.6324501,3.046054],[101.6325515,3.0461805],[101.6326495,3.0463172],[101.6327178,3.0464242],[101.6328511,3.0468855],[101.6328499,3.0470085],[101.6328454,3.0471475],[101.6328123,3.0474915],[101.632794,3.047599],[101.63267,3.0480029],[101.6326215,3.0481773],[101.6325982,3.0483332],[101.6325914,3.0484551],[101.6325959,3.048563],[101.6326062,3.0487605],[101.6326133,3.0488891]]}},{"type":"Feature","properties":{"osmId":1174291430,"name":"Lebuhraya Bukit Jalil","highway":"trunk"},"geometry":{"type":"LineString","coordinates":[[101.6390732,3.0493442],[101.6392623,3.0493434]]}},{"type":"Feature","properties":{"osmId":1183584284,"name":"Lebuhraya Bukit Jalil","highway":"trunk"},"geometry":{"type":"LineString","coordinates":[[101.6364781,3.049217],[101.6363077,3.0492208],[101.6360453,3.0492267]]}},{"type":"Feature","properties":{"osmId":1183584285,"name":"Lebuhraya Bukit Jalil","highway":"trunk"},"geometry":{"type":"LineString","coordinates":[[101.6360453,3.0492267],[101.6353731,3.0492373],[101.6351281,3.0492464],[101.6348455,3.0492747],[101.6343686,3.0493509]]}},{"type":"Feature","properties":{"osmId":1183584286,"name":"Lebuhraya Bukit Jalil","highway":"trunk"},"geometry":{"type":"LineString","coordinates":[[101.6375846,3.049193],[101.6366146,3.049214],[101.6364781,3.049217]]}},{"type":"Feature","properties":{"osmId":1197842324,"name":"Jalan BK 3/3B","highway":"residential"},"geometry":{"type":"LineString","coordinates":[[101.637765,3.0496431],[101.6381477,3.0496343],[101.6387452,3.0496231]]}},{"type":"Feature","properties":{"osmId":1205179169,"name":"","highway":"service"},"geometry":{"type":"LineString","coordinates":[[101.6330421,3.0498529],[101.6330784,3.0501183],[101.6330717,3.0501609],[101.6329608,3.050263]]}},{"type":"Feature","properties":{"osmId":1205179170,"name":"","highway":"service"},"geometry":{"type":"LineString","coordinates":[[101.6330152,3.0496085],[101.6330221,3.0497058],[101.6330421,3.0498529]]}},{"type":"Feature","properties":{"osmId":1205179171,"name":"","highway":"service"},"geometry":{"type":"LineString","coordinates":[[101.6329306,3.0511287],[101.6329825,3.0511163],[101.6330418,3.051106],[101.6333156,3.051081],[101.6334894,3.051058]]}},{"type":"Feature","properties":{"osmId":1228561744,"name":"Jalan BK 3/5","highway":"residential"},"geometry":{"type":"LineString","coordinates":[[101.6378322,3.0516559],[101.6377311,3.0516584]]}},{"type":"Feature","properties":{"osmId":1228561745,"name":"Jalan BK 3/6","highway":"residential"},"geometry":{"type":"LineString","coordinates":[[101.6376926,3.050179],[101.6377754,3.0501768]]}},{"type":"Feature","properties":{"osmId":1228561746,"name":"Jalan BK 3/3B","highway":"residential"},"geometry":{"type":"LineString","coordinates":[[101.6376789,3.049643],[101.637765,3.0496431]]}},{"type":"Feature","properties":{"osmId":1238985749,"name":"","highway":"service"},"geometry":{"type":"LineString","coordinates":[[101.6372762,3.0489192],[101.6372751,3.0487877]]}},{"type":"Feature","properties":{"osmId":1238985750,"name":"","highway":"service"},"geometry":{"type":"LineString","coordinates":[[101.6372751,3.0487877],[101.6373499,3.048781],[101.6373829,3.048779],[101.637412,3.0487635],[101.6374208,3.0487383],[101.6374188,3.048491],[101.6374042,3.0484551],[101.6373829,3.0484406],[101.637346,3.0484377],[101.6371644,3.0484406],[101.6371479,3.0484561],[101.637143,3.0484813],[101.637144,3.0487587],[101.6371693,3.0487742],[101.6372751,3.0487877]]}},{"type":"Feature","properties":{"osmId":1239017158,"name":"","highway":"service"},"geometry":{"type":"LineString","coordinates":[[101.6369985,3.0477217],[101.6370063,3.0478412]]}},{"type":"Feature","properties":{"osmId":1239017160,"name":"","highway":"service"},"geometry":{"type":"LineString","coordinates":[[101.6369985,3.0477217],[101.6369958,3.0476943],[101.6369851,3.0476769],[101.6369663,3.0476689],[101.6364232,3.0476849]]}},{"type":"Feature","properties":{"osmId":1273004193,"name":"","highway":"secondary_link"},"geometry":{"type":"LineString","coordinates":[[101.6327093,3.0488878],[101.6326133,3.0488891]]}},{"type":"Feature","properties":{"osmId":1492550127,"name":"","highway":"service"},"geometry":{"type":"LineString","coordinates":[[101.6364158,3.048836],[101.6364111,3.0488072],[101.6363856,3.0487844],[101.6363306,3.0487791],[101.6362461,3.0487858],[101.6361697,3.0487938]]}},{"type":"Feature","properties":{"osmId":1498091027,"name":"","highway":"service"},"geometry":{"type":"LineString","coordinates":[[101.6364273,3.0489424],[101.6364178,3.0488487],[101.6364158,3.048836]]}},{"type":"Feature","properties":{"osmId":202512700,"building":true},"geometry":{"type":"Polygon","coordinates":[[[101.6321344,3.0503452],[101.6321958,3.0503508],[101.63226,3.0503351],[101.6323151,3.0502988],[101.6323548,3.0502461],[101.6323745,3.0501831],[101.6323718,3.0501171],[101.632347,3.050056],[101.6323031,3.0500067],[101.6322451,3.049975],[101.6321799,3.0499646],[101.6321192,3.0499752],[101.6320649,3.0500044],[101.6320225,3.0500491],[101.6319964,3.0501048],[101.6319891,3.0501659],[101.6320014,3.0502262],[101.632032,3.0502795],[101.6320779,3.0503206],[101.6321344,3.0503452]]]}},{"type":"Feature","properties":{"osmId":202512725,"building":true},"geometry":{"type":"Polygon","coordinates":[[[101.633485,3.0518877],[101.6334552,3.051554],[101.6335172,3.0515484],[101.63351,3.0514674],[101.6334488,3.0514728],[101.6334161,3.0511057],[101.6336471,3.0510851],[101.6337168,3.0518671],[101.633485,3.0518877]]]}},{"type":"Feature","properties":{"osmId":202512729,"building":true},"geometry":{"type":"Polygon","coordinates":[[[101.6340239,3.0541119],[101.633478,3.0532398],[101.6338423,3.0530123],[101.6343883,3.0538844],[101.6340239,3.0541119]]]}},{"type":"Feature","properties":{"osmId":202529861,"building":true},"geometry":{"type":"Polygon","coordinates":[[[101.6379578,3.0434243],[101.6379624,3.0436441],[101.6379174,3.0436451],[101.6379166,3.0436062],[101.63784,3.0436078],[101.6378439,3.0437966],[101.6380489,3.0437923],[101.6380455,3.0436269],[101.638147,3.0436248],[101.6381432,3.0434424],[101.6380313,3.0434447],[101.6380281,3.0432881],[101.6381457,3.0432857],[101.6381417,3.0430929],[101.6380312,3.0430952],[101.6380281,3.0429466],[101.6381484,3.0429441],[101.6381444,3.0427559],[101.637946,3.04276],[101.63795,3.0429532],[101.6379041,3.0429542],[101.6379034,3.0429232],[101.6378321,3.0429247],[101.6378359,3.0431097],[101.6379133,3.0431081],[101.6379128,3.0430813],[101.6379579,3.0430803],[101.6379625,3.0433012],[101.6379094,3.0433023],[101.6379085,3.0432572],[101.6375029,3.0432656],[101.6374998,3.0431168],[101.6376133,3.0431144],[101.6376096,3.0429349],[101.6374978,3.0429372],[101.637494,3.0427534],[101.6373128,3.0427571],[101.6373169,3.0429514],[101.6373796,3.0429501],[101.6373789,3.0429166],[101.6374241,3.0429156],[101.6374286,3.0431298],[101.6373889,3.0431306],[101.6373883,3.0430986],[101.6373145,3.0431002],[101.6373181,3.043277],[101.6373849,3.0432756],[101.6373844,3.0432525],[101.6374253,3.0432517],[101.63743,3.0434754],[101.6373889,3.0434763],[101.6373883,3.0434442],[101.6373184,3.0434457],[101.6373221,3.0436265],[101.637397,3.0436249],[101.6373963,3.0435941],[101.6374336,3.0435933],[101.6374381,3.0438088],[101.6376374,3.0438047],[101.6376335,3.0436137],[101.6375176,3.0436161],[101.6375146,3.0434693],[101.6379162,3.043461],[101.6379155,3.0434252],[101.6379578,3.0434243]]]}},{"type":"Feature","properties":{"osmId":202545577,"building":true},"geometry":{"type":"Polygon","coordinates":[[[101.6360303,3.047028],[101.6363319,3.0470166],[101.6363352,3.0470852],[101.6363829,3.0470836],[101.6363883,3.0471345],[101.6363974,3.0473046],[101.6360423,3.0473193],[101.6360303,3.047028]]]}},{"type":"Feature","properties":{"osmId":202545601,"building":true},"geometry":{"type":"Polygon","coordinates":[[[101.6364392,3.0471291],[101.6364339,3.0470086],[101.6367182,3.0469941],[101.6367182,3.0472861],[101.6366592,3.0472898],[101.6366619,3.0473327],[101.636399,3.0473353],[101.6363974,3.0473046],[101.6363883,3.0471345],[101.6364392,3.0471291]]]}},{"type":"Feature","properties":{"osmId":202545616,"building":true},"geometry":{"type":"Polygon","coordinates":[[[101.63796,3.0446571],[101.6379681,3.0444964],[101.6380861,3.0445044],[101.6380754,3.0446624],[101.63796,3.0446571]]]}},{"type":"Feature","properties":{"osmId":202545620,"building":true},"geometry":{"type":"Polygon","coordinates":[[[101.6339391,3.046098],[101.6339453,3.0458531],[101.6339501,3.0457874],[101.6339507,3.045604],[101.6337361,3.0456048],[101.6337275,3.0460954],[101.6339391,3.046098]]]}},{"type":"Feature","properties":{"osmId":202545621,"building":true},"geometry":{"type":"Polygon","coordinates":[[[101.6375202,3.0463632],[101.6375287,3.0465066],[101.637496,3.0465132],[101.6375041,3.0465988],[101.6373887,3.0466095],[101.637378,3.0464918],[101.6374102,3.0464864],[101.6374075,3.0464302],[101.6373405,3.0464382],[101.637349,3.0466138],[101.6372278,3.0466175],[101.637231,3.0467048],[101.6370615,3.0467086],[101.6370581,3.046603],[101.6370508,3.0463793],[101.6375202,3.0463632]]]}},{"type":"Feature","properties":{"osmId":202545629,"building":true},"geometry":{"type":"Polygon","coordinates":[[[101.6365331,3.0461114],[101.6363867,3.0461155],[101.6363936,3.0464007],[101.6365599,3.0463927],[101.6367128,3.04639],[101.6367361,3.0463893],[101.6367357,3.0463379],[101.6367343,3.0461677],[101.6367101,3.0461677],[101.6367155,3.0460552],[101.6366714,3.0460557],[101.6366678,3.0460888],[101.6366479,3.04609],[101.6366458,3.0461133],[101.6365331,3.0461114]]]}},{"type":"Feature","properties":{"osmId":202545639,"building":true},"geometry":{"type":"Polygon","coordinates":[[[101.6364419,3.0466336],[101.6364392,3.0464462],[101.6365626,3.0464382],[101.6365599,3.0463927],[101.6367128,3.04639],[101.6367214,3.0466047],[101.6366754,3.0466074],[101.6366755,3.0466312],[101.6364419,3.0466336]]]}},{"type":"Feature","properties":{"osmId":202545640,"building":true},"geometry":{"type":"Polygon","coordinates":[[[101.6342532,3.0460659],[101.6342532,3.0457874],[101.6339501,3.0457874],[101.6339453,3.0458531],[101.6340092,3.0458543],[101.6340092,3.0459802],[101.6339662,3.0459829],[101.6339668,3.0460513],[101.6340038,3.0460498],[101.6340057,3.0460741],[101.6342532,3.0460659]]]}},{"type":"Feature","properties":{"osmId":202545644,"building":true},"geometry":{"type":"Polygon","coordinates":[[[101.6379386,3.0452597],[101.6379466,3.0449356],[101.6380512,3.0449383],[101.6380437,3.0452639],[101.6379386,3.0452597]]]}},{"type":"Feature","properties":{"osmId":202545648,"building":true},"geometry":{"type":"Polygon","coordinates":[[[101.6370776,3.0487415],[101.6370696,3.0484228],[101.6364473,3.0484415],[101.63645,3.048538],[101.6365304,3.0485353],[101.6365336,3.0487538],[101.6370776,3.0487415]]]}},{"type":"Feature","properties":{"osmId":202545663,"building":true},"geometry":{"type":"Polygon","coordinates":[[[101.636061,3.0476434],[101.636053,3.0473514],[101.636399,3.0473353],[101.6363969,3.0474548],[101.636348,3.0474586],[101.6363507,3.047638],[101.636061,3.0476434]]]}},{"type":"Feature","properties":{"osmId":202545670,"building":true},"geometry":{"type":"Polygon","coordinates":[[[101.634323,3.0461034],[101.6343154,3.0456025],[101.6346159,3.0456013],[101.6346159,3.0459897],[101.6345295,3.0459909],[101.6345322,3.0461061],[101.634323,3.0461034]]]}},{"type":"Feature","properties":{"osmId":202545675,"building":true},"geometry":{"type":"Polygon","coordinates":[[[101.6371736,3.0487089],[101.6371688,3.048473],[101.6373693,3.0484689],[101.6373741,3.0487048],[101.6371736,3.0487089]]]}},{"type":"Feature","properties":{"osmId":202545688,"building":true},"geometry":{"type":"Polygon","coordinates":[[[101.6371232,3.0475844],[101.6371259,3.047646],[101.6373279,3.0476371],[101.6373293,3.047728],[101.6374709,3.0477308],[101.6374213,3.0469314],[101.6373692,3.0468744],[101.6370495,3.0468819],[101.63705,3.0469137],[101.6370568,3.0473369],[101.6370636,3.0475807],[101.6371232,3.0475844]]]}},{"type":"Feature","properties":{"osmId":233125250,"building":true},"geometry":{"type":"Polygon","coordinates":[[[101.6409816,3.0437732],[101.64139,3.0437708],[101.6413934,3.043671],[101.6414121,3.0436259],[101.6413651,3.043603],[101.6413497,3.0436459],[101.6413484,3.0435989],[101.6412847,3.0435985],[101.6412846,3.0436185],[101.6412228,3.0436202],[101.6412222,3.0435722],[101.6411514,3.043573],[101.641152,3.0436197],[101.6410911,3.0436195],[101.6410909,3.0435982],[101.6410232,3.043599],[101.6410234,3.0436193],[101.6409788,3.0436191],[101.6409521,3.0435696],[101.6408935,3.0435985],[101.6409199,3.043658],[101.6408881,3.0436601],[101.6408877,3.0437357],[101.6409788,3.0437357],[101.6409816,3.0437732]]]}},{"type":"Feature","properties":{"osmId":233336130,"building":true},"geometry":{"type":"Polygon","coordinates":[[[101.6398939,3.0470918],[101.6399545,3.0472675],[101.6397088,3.0473837],[101.6395908,3.0470757],[101.6397651,3.0470007],[101.6398231,3.0471282],[101.6398939,3.0470918]]]}},{"type":"Feature","properties":{"osmId":233336719,"building":true},"geometry":{"type":"Polygon","coordinates":[[[101.6404742,3.0499033],[101.6404695,3.04976],[101.6404652,3.0496436],[101.6406655,3.0496364],[101.6407385,3.0496342],[101.6407406,3.0496942],[101.6408418,3.0496907],[101.6408409,3.0496643],[101.6408792,3.049663],[101.641002,3.0496588],[101.6410054,3.0497566],[101.6408368,3.0497624],[101.6408379,3.0497945],[101.6407704,3.0497968],[101.6407726,3.0498615],[101.6407109,3.0498636],[101.6407089,3.0498057],[101.6406656,3.0498072],[101.6406687,3.0498966],[101.6404742,3.0499033]]]}}]}