{"type":"FeatureCollection","description":"Approximate shop premises for visitor orientation. Not cadastral boundaries or entrance coordinates.","licence":"Contains OSM-derived alignment; Open Database Licence (ODbL) 1.0","alignment":{"method":"affine least-squares; five road-centre controls","controlResidualRMSEMetres":2.5,"controlCount":5,"warning":"Residual is alignment fit only, not absolute positional accuracy. Archival-plan and OSM errors remain.","blockAdjustments":{"B":{"latitudeOrigin":3.04763495,"northScale":0.961,"northShiftMetres":8.901},"C":{"latitudeOrigin":3.04699225,"northScale":0.903,"northShiftMetres":4.571}},"adjustmentNote":"B/C adjusted within mapped access roads with approximately 4m centreline clearance. Road widths and premises boundaries remain unverified."},"features":[{"type":"Feature","properties":{"id":"tpk-2-8-1","number":1,"block":"A","bay":1,"precision":"plan-derived-approximate","source":"Archival architectural site plan + OSM road-centre controls; address sequence checked against management register","entranceVerified":false},"geometry":{"type":"Polygon","coordinates":[[[101.63765,3.0488535],[101.6376499,3.0487542],[101.6378359,3.0487493],[101.637836,3.0488486],[101.63765,3.0488535]]]}},{"type":"Feature","properties":{"id":"tpk-2-8-3","number":3,"block":"A","bay":2,"precision":"plan-derived-approximate","source":"Archival architectural site plan + OSM road-centre controls; address sequence checked against management register","entranceVerified":false},"geometry":{"type":"Polygon","coordinates":[[[101.6376499,3.0487542],[101.6376498,3.0486955],[101.6378358,3.0486906],[101.6378359,3.0487493],[101.6376499,3.0487542]]]}},{"type":"Feature","properties":{"id":"tpk-2-8-5","number":5,"block":"A","bay":3,"precision":"plan-derived-approximate","source":"Archival architectural site plan + OSM road-centre controls; address sequence checked against management register","entranceVerified":false},"geometry":{"type":"Polygon","coordinates":[[[101.6376498,3.0486955],[101.6376497,3.0486368],[101.6378357,3.0486319],[101.6378358,3.0486906],[101.6376498,3.0486955]]]}},{"type":"Feature","properties":{"id":"tpk-2-8-7","number":7,"block":"A","bay":4,"precision":"plan-derived-approximate","source":"Archival architectural site plan + OSM road-centre controls; address sequence checked against management register","entranceVerified":false},"geometry":{"type":"Polygon","coordinates":[[[101.6376497,3.0486368],[101.6376496,3.0485736],[101.6378356,3.0485687],[101.6378357,3.0486319],[101.6376497,3.0486368]]]}},{"type":"Feature","properties":{"id":"tpk-2-8-9","number":9,"block":"A","bay":5,"precision":"plan-derived-approximate","source":"Archival architectural site plan + OSM road-centre controls; address sequence checked against management register","entranceVerified":false},"geometry":{"type":"Polygon","coordinates":[[[101.6376496,3.0485736],[101.6376495,3.0485149],[101.6378355,3.04851],[101.6378356,3.0485687],[101.6376496,3.0485736]]]}},{"type":"Feature","properties":{"id":"tpk-2-8-11","number":11,"block":"A","bay":6,"precision":"plan-derived-approximate","source":"Archival architectural site plan + OSM road-centre controls; address sequence checked against management register","entranceVerified":false},"geometry":{"type":"Polygon","coordinates":[[[101.6376495,3.0485149],[101.6376494,3.0484562],[101.6378354,3.0484514],[101.6378355,3.04851],[101.6376495,3.0485149]]]}},{"type":"Feature","properties":{"id":"tpk-2-8-13","number":13,"block":"A","bay":7,"precision":"plan-derived-approximate","source":"Archival architectural site plan + OSM road-centre controls; address sequence checked against management register","entranceVerified":false},"geometry":{"type":"Polygon","coordinates":[[[101.6376494,3.0484562],[101.6376493,3.0483976],[101.6378353,3.0483927],[101.6378354,3.0484514],[101.6376494,3.0484562]]]}},{"type":"Feature","properties":{"id":"tpk-2-8-15","number":15,"block":"A","bay":8,"precision":"plan-derived-approximate","source":"Archival architectural site plan + OSM road-centre controls; address sequence checked against management register","entranceVerified":false},"geometry":{"type":"Polygon","coordinates":[[[101.6376493,3.0483976],[101.6376492,3.0483344],[101.6378352,3.0483295],[101.6378353,3.0483927],[101.6376493,3.0483976]]]}},{"type":"Feature","properties":{"id":"tpk-2-8-17","number":17,"block":"A","bay":9,"precision":"plan-derived-approximate","source":"Archival architectural site plan + OSM road-centre controls; address sequence checked against management register","entranceVerified":false},"geometry":{"type":"Polygon","coordinates":[[[101.6376492,3.0483344],[101.6376492,3.0482757],[101.6378352,3.0482708],[101.6378352,3.0483295],[101.6376492,3.0483344]]]}},{"type":"Feature","properties":{"id":"tpk-2-8-19","number":19,"block":"A","bay":10,"precision":"plan-derived-approximate","source":"Archival architectural site plan + OSM road-centre controls; address sequence checked against management register","entranceVerified":false},"geometry":{"type":"Polygon","coordinates":[[[101.6376492,3.0482757],[101.6376491,3.048217],[101.6378351,3.0482121],[101.6378352,3.0482708],[101.6376492,3.0482757]]]}},{"type":"Feature","properties":{"id":"tpk-2-8-21","number":21,"block":"A","bay":11,"precision":"plan-derived-approximate","source":"Archival architectural site plan + OSM road-centre controls; address sequence checked against management register","entranceVerified":false},"geometry":{"type":"Polygon","coordinates":[[[101.6376491,3.048217],[101.637649,3.0481628],[101.637835,3.0481579],[101.6378351,3.0482121],[101.6376491,3.048217]]]}},{"type":"Feature","properties":{"id":"tpk-2-8-23","number":23,"block":"A","bay":12,"precision":"plan-derived-approximate","source":"Archival architectural site plan + OSM road-centre controls; address sequence checked against management register","entranceVerified":false},"geometry":{"type":"Polygon","coordinates":[[[101.637649,3.0481628],[101.6376489,3.0480996],[101.6378349,3.0480948],[101.637835,3.0481579],[101.637649,3.0481628]]]}},{"type":"Feature","properties":{"id":"tpk-2-8-25","number":25,"block":"B","bay":1,"precision":"plan-derived-approximate","source":"Archival architectural site plan + OSM road-centre controls; address sequence checked against management register; owner-requested road-clearance adjustment (2026-10-07)","entranceVerified":false},"geometry":{"type":"Polygon","coordinates":[[[101.6376486,3.0480313],[101.6376422,3.0479187],[101.6378282,3.047914],[101.6378346,3.0480266],[101.6376486,3.0480313]]]}},{"type":"Feature","properties":{"id":"tpk-2-8-27","number":27,"block":"B","bay":2,"precision":"plan-derived-approximate","source":"Archival architectural site plan + OSM road-centre controls; address sequence checked against management register; owner-requested road-clearance adjustment (2026-10-07)","entranceVerified":false},"geometry":{"type":"Polygon","coordinates":[[[101.6376422,3.0479187],[101.6376388,3.047858],[101.6378248,3.0478533],[101.6378282,3.047914],[101.6376422,3.0479187]]]}},{"type":"Feature","properties":{"id":"tpk-2-8-29","number":29,"block":"B","bay":3,"precision":"plan-derived-approximate","source":"Archival architectural site plan + OSM road-centre controls; address sequence checked against management register; owner-requested road-clearance adjustment (2026-10-07)","entranceVerified":false},"geometry":{"type":"Polygon","coordinates":[[[101.6376388,3.047858],[101.6376356,3.0478017],[101.6378216,3.047797],[101.6378248,3.0478533],[101.6376388,3.047858]]]}},{"type":"Feature","properties":{"id":"tpk-2-8-31","number":31,"block":"B","bay":4,"precision":"plan-derived-approximate","source":"Archival architectural site plan + OSM road-centre controls; address sequence checked against management register; owner-requested road-clearance adjustment (2026-10-07)","entranceVerified":false},"geometry":{"type":"Polygon","coordinates":[[[101.6376356,3.0478017],[101.6376322,3.0477411],[101.6378182,3.0477364],[101.6378216,3.047797],[101.6376356,3.0478017]]]}},{"type":"Feature","properties":{"id":"tpk-2-8-33","number":33,"block":"B","bay":5,"precision":"plan-derived-approximate","source":"Archival architectural site plan + OSM road-centre controls; address sequence checked against management register; owner-requested road-clearance adjustment (2026-10-07)","entranceVerified":false},"geometry":{"type":"Polygon","coordinates":[[[101.6376322,3.0477411],[101.637629,3.0476848],[101.637815,3.0476801],[101.6378182,3.0477364],[101.6376322,3.0477411]]]}},{"type":"Feature","properties":{"id":"tpk-2-8-35","number":35,"block":"B","bay":6,"precision":"plan-derived-approximate","source":"Archival architectural site plan + OSM road-centre controls; address sequence checked against management register; owner-requested road-clearance adjustment (2026-10-07)","entranceVerified":false},"geometry":{"type":"Polygon","coordinates":[[[101.637629,3.0476848],[101.6376259,3.0476285],[101.6378119,3.0476238],[101.637815,3.0476801],[101.637629,3.0476848]]]}},{"type":"Feature","properties":{"id":"tpk-2-8-37","number":37,"block":"B","bay":7,"precision":"plan-derived-approximate","source":"Archival architectural site plan + OSM road-centre controls; address sequence checked against management register; owner-requested road-clearance adjustment (2026-10-07)","entranceVerified":false},"geometry":{"type":"Polygon","coordinates":[[[101.6376259,3.0476285],[101.6376227,3.0475722],[101.6378087,3.0475674],[101.6378119,3.0476238],[101.6376259,3.0476285]]]}},{"type":"Feature","properties":{"id":"tpk-2-8-39","number":39,"block":"B","bay":8,"precision":"plan-derived-approximate","source":"Archival architectural site plan + OSM road-centre controls; address sequence checked against management register; owner-requested road-clearance adjustment (2026-10-07)","entranceVerified":false},"geometry":{"type":"Polygon","coordinates":[[[101.6376227,3.0475722],[101.6376195,3.0475158],[101.6378055,3.0475111],[101.6378087,3.0475674],[101.6376227,3.0475722]]]}},{"type":"Feature","properties":{"id":"tpk-2-8-41","number":41,"block":"B","bay":9,"precision":"plan-derived-approximate","source":"Archival architectural site plan + OSM road-centre controls; address sequence checked against management register; owner-requested road-clearance adjustment (2026-10-07)","entranceVerified":false},"geometry":{"type":"Polygon","coordinates":[[[101.6376195,3.0475158],[101.6376131,3.0474032],[101.6377991,3.0473985],[101.6378055,3.0475111],[101.6376195,3.0475158]]]}},{"type":"Feature","properties":{"id":"tpk-2-8-43","number":43,"block":"C","bay":1,"precision":"plan-derived-approximate","source":"Archival architectural site plan + OSM road-centre controls; address sequence checked against management register; owner-requested road-clearance adjustment (2026-10-07)","entranceVerified":false},"geometry":{"type":"Polygon","coordinates":[[[101.6375915,3.0473213],[101.6375879,3.0472602],[101.6377738,3.0472559],[101.6377775,3.0473169],[101.6375915,3.0473213]]]}},{"type":"Feature","properties":{"id":"tpk-2-8-45","number":45,"block":"C","bay":2,"precision":"plan-derived-approximate","source":"Archival architectural site plan + OSM road-centre controls; address sequence checked against management register; owner-requested road-clearance adjustment (2026-10-07)","entranceVerified":false},"geometry":{"type":"Polygon","coordinates":[[[101.6375879,3.0472602],[101.6375849,3.0472114],[101.6377709,3.047207],[101.6377738,3.0472559],[101.6375879,3.0472602]]]}},{"type":"Feature","properties":{"id":"tpk-2-8-47","number":47,"block":"C","bay":3,"precision":"plan-derived-approximate","source":"Archival architectural site plan + OSM road-centre controls; address sequence checked against management register; owner-requested road-clearance adjustment (2026-10-07)","entranceVerified":false},"geometry":{"type":"Polygon","coordinates":[[[101.6375849,3.0472114],[101.637582,3.0471626],[101.637768,3.0471582],[101.6377709,3.047207],[101.6375849,3.0472114]]]}},{"type":"Feature","properties":{"id":"tpk-2-8-49","number":49,"block":"C","bay":4,"precision":"plan-derived-approximate","source":"Archival architectural site plan + OSM road-centre controls; address sequence checked against management register; owner-requested road-clearance adjustment (2026-10-07)","entranceVerified":false},"geometry":{"type":"Polygon","coordinates":[[[101.637582,3.0471626],[101.6375788,3.0471097],[101.6377648,3.0471052],[101.637768,3.0471582],[101.637582,3.0471626]]]}},{"type":"Feature","properties":{"id":"tpk-2-8-51","number":51,"block":"C","bay":5,"precision":"plan-derived-approximate","source":"Archival architectural site plan + OSM road-centre controls; address sequence checked against management register; owner-requested road-clearance adjustment (2026-10-07)","entranceVerified":false},"geometry":{"type":"Polygon","coordinates":[[[101.6375788,3.0471097],[101.6375754,3.0470527],[101.6377614,3.0470483],[101.6377648,3.0471052],[101.6375788,3.0471097]]]}},{"type":"Feature","properties":{"id":"tpk-2-8-53","number":53,"block":"C","bay":6,"precision":"plan-derived-approximate","source":"Archival architectural site plan + OSM road-centre controls; address sequence checked against management register; owner-requested road-clearance adjustment (2026-10-07)","entranceVerified":false},"geometry":{"type":"Polygon","coordinates":[[[101.6375754,3.0470527],[101.63757,3.0469631],[101.637756,3.0469587],[101.6377614,3.0470483],[101.6375754,3.0470527]]]}},{"type":"Feature","properties":{"id":"tpk-2-8-55","number":55,"block":"C","bay":7,"precision":"plan-derived-approximate","source":"Archival architectural site plan + OSM road-centre controls; address sequence checked against management register; owner-requested road-clearance adjustment (2026-10-07)","entranceVerified":false},"geometry":{"type":"Polygon","coordinates":[[[101.63757,3.0469631],[101.6375956,3.0468728],[101.6377815,3.0468684],[101.637756,3.0469587],[101.63757,3.0469631]]]}},{"type":"Feature","properties":{"id":"tpk-2-8-57","number":57,"block":"C","bay":8,"precision":"plan-derived-approximate","source":"Archival architectural site plan + OSM road-centre controls; address sequence checked against management register; owner-requested road-clearance adjustment (2026-10-07)","entranceVerified":false},"geometry":{"type":"Polygon","coordinates":[[[101.6375956,3.0468728],[101.6376304,3.0467497],[101.6378164,3.0467453],[101.6377815,3.0468684],[101.6375956,3.0468728]]]}}]}
